FLOCK 2P-12             
1 41614U 16040R   17299.62424998  .00008243  00000-0  35168-3 0  9992
2 41614  97.4484   1.5894 0010058 351.9177   8.1896 15.23126960 74679
FLOCK 2P-7              
1 41615U 16040S   17299.65689817  .00011238  00000-0  47779-3 0  9998
2 41615  97.4469   1.4654 0010216 351.6065   8.4999 15.23155075 74671
FLOCK 2P-5              
1 41616U 16040T   17299.63522269  .00008153  00000-0  34781-3 0  9995
2 41616  97.4484   1.5742 0010005 351.4112   8.6952 15.23134357 74654
FLOCK 2P-1              
1 41617U 16040U   17299.62340696  .00010496  00000-0  44637-3 0  9991
2 41617  97.4487   1.5933 0009799 351.5459   8.5611 15.23167061 74674
FLOCK 2P-3              
1 41618U 16040V   17299.65163637  .00008492  00000-0  36230-3 0  9996
2 41618  97.4484   1.5464 0009936 351.9162   8.1913 15.23121114 74679
BEESAT-4                
1 41619U 16040W   17299.17670507  .00003948  00000-0  17923-3 0  9992
2 41619  97.4476   0.2336 0011064 337.6050  22.4701 15.21328727 62507
3CAT-2                  
1 41732U 16051B   17299.60596804  .00002306  00000-0  94023-4 0  9999
2 41732  97.3728 214.6406 0014010 162.2723 283.1917 15.25369575 66569
FLOCK 2E'-13            
1 41761U 98067KH  17299.68030653  .00020376  00000-0  21566-3 0  9999
2 41761  51.6365  87.2702 0005449  35.3484 324.7871 15.64114953 63462
FLOCK 2E'-14            
1 41762U 98067KJ  17299.64279934  .00023140  00000-0  23993-3 0  9991
2 41762  51.6377  87.0591 0005031  34.1086 326.0232 15.64551123 63462
FLOCK 2E'-16            
1 41763U 98067KK  17299.63295779  .00025038  00000-0  25213-3 0  9991
2 41763  51.6381  86.2405 0004394  47.3381 312.7984 15.65243714 63436
FLOCK 2E'-15            
1 41764U 98067KL  17299.63669631  .00022533  00000-0  23909-3 0  9991
2 41764  51.6377  87.7632 0005143  42.0645 318.0744 15.63980730 63413
FLOCK 2E'-18            
1 41769U 98067KM  17299.68210545  .00022327  00000-0  23637-3 0  9996
2 41769  51.6374  87.3085 0004110  68.1153 292.0279 15.64050130 63427
FLOCK 2E'-17            
1 41776U 98067KN  17299.66583910  .00022343  00000-0  23464-3 0  9997
2 41776  51.6386  87.2306 0004341  68.1725 291.9731 15.64254041 63411
FLOCK 2E'-19            
1 41777U 98067KP  17299.65157166  .00038158  00000-0  33665-3 0  9992
2 41777  51.6358  81.8017 0002846  62.3074 297.8211 15.68308286 63447
FLOCK 2E'-20            
1 41782U 98067KQ  17299.66159541  .00030368  00000-0  28205-3 0  9997
2 41782  51.6369  83.4155 0002955  62.2944 297.8352 15.67158044 63295
CANX-7                  
1 41788U 16059F   17299.58994678  .00009391  00000-0  16948-2 0  9995
2 41788  98.1873   0.7204 0035133 120.6137 239.8566 14.66278088 57836
ALSAT 1N                
1 41789U 16059G   17299.43750444  .00000146  00000-0  36768-4 0  9994
2 41789  98.1535   0.1071 0029834 102.0005 258.4552 14.64091699 57816
RAVAN                   
1 41849U 16067B   17298.68889321  .00001938  00000-0  17231-3 0  9996
2 41849  97.9404  18.8830 0008121 218.5348 141.5294 14.97302753 52039
CELTEE 1                
1 41850U 16067C   17299.17392779  .00001170  00000-0  10784-3 0  9993
2 41850  97.9404  19.1692 0008027 213.5276 146.5438 14.96662631 52095
OPTICUBE 04             
1 41851U 16067D   17299.18654844  .00000597  00000-0  57833-4 0  9998
2 41851  97.9406  19.1509 0007863 215.6251 144.4446 14.96566103 52091
AEROCUBE 8D             
1 41852U 16067E   17299.19110957  .00000628  00000-0  60859-4 0  9999
2 41852  97.9418  19.0358 0008703 216.5339 143.5288 14.96323272 52088
AEROCUBE 8C             
1 41853U 16067F   17299.19964475  .00000215  00000-0  24368-4 0  9999
2 41853  97.9416  19.0227 0009131 218.9456 141.1107 14.96285324 52083
PROMETHEUS 2-1          
1 41854U 16067G   17299.21599055  .00000839  00000-0  79573-4 0  9991
2 41854  97.9414  19.0095 0009745 219.1734 140.8782 14.96295332 52083
PROMETHEUS 2-3          
1 41855U 16067H   17299.21803773  .00000925  00000-0  87174-4 0  9999
2 41855  97.9414  19.0115 0009930 219.3079 140.7421 14.96288901 52080
LEMUR-2-XIAOQING        
1 41871U 16062C   17299.52328950  .00003935  00000-0  17841-3 0  9992
2 41871  51.6344 182.8418 0004504 343.7656  81.5235 15.23109148 50952
LEMUR-2-SOKOLSKY        
1 41872U 16062D   17299.50595155  .00004678  00000-0  20865-3 0  9999
2 41872  51.6724 182.7582 0005221   4.6724  57.7440 15.23238146 50945
LEMUR-2-ANUBHAVTHAKUR   
1 41873U 16062E   17299.14320462  .00001804  00000-0  92459-4 0  9994
2 41873  51.6462 185.9739 0004976 357.5674 158.9226 15.21921340 50853
LEMUR-2-WINGO           
1 41874U 16062F   17299.18150302  .00003903  00000-0  17887-3 0  9996
2 41874  51.6393 184.7544 0004843 333.3787 164.0098 15.22758434 50889
STARS-C                 
1 41895U 98067KR  17299.63239502  .00096247  00000-0  69605-3 0  9992
2 41895  51.6337  86.9276 0000515  64.6888 295.4164 15.72693687 48583
ITF-2                   
1 41932U 98067KU  17299.62265221  .00033621  00000-0  35071-3 0  9997
2 41932  51.6387  92.9453 0003891  38.0730 322.0539 15.64185880 44070
WASEDA-SAT3             
1 41933U 98067KV  17299.65313477  .00040904  00000-0  40127-3 0  9998
2 41933  51.6365  91.6089 0003523  38.0488 322.0756 15.65642012 44099
AOBA-VELOX 3            
1 41935U 98067KX  17299.63145037  .00039266  00000-0  39364-3 0  9993
2 41935  51.6385  92.2438 0003207  38.6819 321.4406 15.65117175 44183
OSNSAT                  
1 41939U 98067KZ  17299.63202411  .00134780  00000-0  77415-3 0  9993
2 41939  51.6352  83.1462 0003503 357.3969   2.7013 15.77829053 43554
FLOCK 3P-8              
1 41951U 17008D   17299.65662061  .00003021  00000-0  12998-3 0  9994
2 41951  97.4811   0.5744 0010087  92.7776 267.4615 15.23367120 38536
FLOCK 3P-51             
1 41952U 17008E   17299.62685957  .00005804  00000-0  24667-3 0  9998
2 41952  97.4815   0.6345 0010014 108.2963 251.9364 15.23392371 38535
FLOCK 3P-37             
1 41953U 17008F   17299.63399993  .00006406  00000-0  26833-3 0  9998
2 41953  97.4814   0.7692 0009237 112.4686 247.7530 15.23852088 38540
INS-1B                  
1 41954U 17008G   17299.63319872  .00003536  00000-0  15653-3 0  9996
2 41954  97.4785   0.2284 0011297  92.8039 267.4490 15.22263052 38463
FLOCK 3P-19             
1 41955U 17008H   17298.88339837  .00003219  00000-0  13813-3 0  9990
2 41955  97.4806 359.7554 0010922  94.8068 265.4416 15.23397396 38341
FLOCK 3P-24             
1 41956U 17008J   17299.66821874  .00007601  00000-0  32125-3 0  9991
2 41956  97.4803   0.5442 0010668  90.2802 269.9658 15.23468557 38546
FLOCK 3P-18             
1 41957U 17008K   17299.66895074  .00006437  00000-0  27269-3 0  9994
2 41957  97.4803   0.5468 0010762  91.6530 268.5940 15.23449801 38385
FLOCK 3P-22             
1 41958U 17008L   17299.60990197  .00002969  00000-0  12769-3 0  9996
2 41958  97.4807   0.4752 0010586  92.2096 268.0353 15.23387914 38360
FLOCK 3P-21             
1 41959U 17008M   17298.94224935  .00003202  00000-0  13769-3 0  9995
2 41959  97.4814 359.8500 0010457  95.7046 264.5383 15.23333177 38277
FLOCK 3P-28             
1 41960U 17008N   17299.66304793  .00003579  00000-0  15352-3 0  9995
2 41960  97.4811   0.5666 0010396  92.0151 268.2276 15.23342993 38467
FLOCK 3P-26             
1 41961U 17008P   17298.88285105  .00003311  00000-0  14199-3 0  9996
2 41961  97.4810 359.7677 0010577  93.6208 266.6239 15.23405162 38266
FLOCK 3P-17             
1 41962U 17008Q   17299.65262080  .00003072  00000-0  13220-3 0  9998
2 41962  97.4810   0.5791 0010398  93.8660 266.3766 15.23339972 38335
FLOCK 3P-27             
1 41963U 17008R   17298.89185174  .00003276  00000-0  14068-3 0  9999
2 41963  97.4809 359.7583 0010720  94.1823 266.0639 15.23366684 38264
FLOCK 3P-25             
1 41964U 17008S   17298.87740540  .00002887  00000-0  12445-3 0  9996
2 41964  97.4809 359.7711 0010347  94.2866 265.9553 15.23338986 38246
FLOCK 3P-4              
1 41965U 17008T   17298.93748577  .00007496  00000-0  31810-3 0  9990
2 41965  97.4810 359.8525 0010279  95.2588 264.9821 15.23342488 38350
FLOCK 3P-2              
1 41966U 17008U   17298.93838159  .00003106  00000-0  13365-3 0  9996
2 41966  97.4813 359.8568 0010168  93.8888 266.3511 15.23340442 38276
FLOCK 3P-1              
1 41967U 17008V   17299.61548750  .00005986  00000-0  25603-3 0  9994
2 41967  97.4814   0.4896 0010231  93.5635 266.6772 15.23158822 38371
FLOCK 3P-3              
1 41968U 17008W   17299.66379305  .00002830  00000-0  12207-3 0  9999
2 41968  97.4811   0.5658 0010255  92.1397 268.1014 15.23337650 38466
FLOCK 3P-6              
1 41969U 17008X   17299.65834454  .00002848  00000-0  12276-3 0  9995
2 41969  97.4813   0.5811 0010062  91.8456 268.3933 15.23352699 38370
FLOCK 3P-7              
1 41970U 17008Y   17298.91750817  .00003085  00000-0  13272-3 0  9996
2 41970  97.4814 359.8868 0010158  96.6007 263.6386 15.23357866 38276
FLOCK 3P-5              
1 41971U 17008Z   17299.19583840  .00003081  00000-0  13266-3 0  9997
2 41971  97.4816   0.1328 0010123  95.6467 264.5924 15.23325393 38242
FLOCK 3P-12             
1 41972U 17008AA  17299.65424826  .00006221  00000-0  26455-3 0  9990
2 41972  97.4813   0.5910 0009958  94.5878 265.6496 15.23342968 38466
FLOCK 3P-9              
1 41973U 17008AB  17299.65757595  .00005369  00000-0  22882-3 0  9995
2 41973  97.4815   0.5910 0010127  92.7106 267.5290 15.23334782 38461
FLOCK 3P-10             
1 41974U 17008AC  17298.92391098  .00002999  00000-0  12896-3 0  9997
2 41974  97.4817 359.8890 0009922  96.2423 263.9944 15.23395213 38241
FLOCK 3P-11             
1 41975U 17008AD  17298.87081869  .00002952  00000-0  12709-3 0  9996
2 41975  97.4816 359.8034 0010193  95.4406 264.7994 15.23362711 38235
FLOCK 3P-60             
1 41976U 17008AE  17299.63518901  .00003132  00000-0  13454-3 0  9993
2 41976  97.4819   0.6262 0009840  95.2350 265.0009 15.23392202 37717
